IRIDIUM 39              
1 25042U 97069D   25088.92878819  .00001658  00000+0  43101-3 0  9990
2 25042  86.3884 245.0964 0017010 205.6481 154.3881 14.49053212437484
IRIDIUM 38              
1 25043U 97069E   25088.91551221  .00001075  00000+0  34916-3 0  9992
2 25043  86.3898 266.5133 0002755  46.6419 313.5008 14.38005697434568
IRIDIUM 42              
1 25077U 97077A   25088.89422083  .00000978  00000+0  32864-3 0  9999
2 25077  86.3901 272.6008 0002386  73.1557 286.9902 14.36249602429819
IRIDIUM 44              
1 25078U 97077B   25088.92367440  .00001115  00000+0  34696-3 0  9998
2 25078  86.3913 254.7031 0000652  29.8475 330.2761 14.40136781432291
IRIDIUM 45              
1 25104U 97082A   25088.96130751  .00024617  00000+0  97069-3 0  9996
2 25104  86.3539  86.2698 0121091 267.6920  91.0454 15.18806392440007
IRIDIUM 24              
1 25105U 97082B   25088.79013551  .00001005  00000+0  30037-3 0  9994
2 25105  86.3866 113.9910 0010786 352.4616   7.6420 14.41979371431772
IRIDIUM 51              
1 25262U 98018A   25088.97560667  .00032788  00000+0  87323-3 0  9995
2 25262  86.3802  94.8689 0098246 191.2297 168.6764 15.33169556434867
IRIDIUM 57              
1 25273U 98019B   25088.79659999  .00000748  00000+0  25165-3 0  9992
2 25273  86.4033 178.4987 0002174  93.0997 267.0449 14.35817185413395
